CCSDS_OMM_VERS = 2.0
CREATION_DATE  = 
ORIGINATOR     = 

OBJECT_NAME    = STARLINK-37160
OBJECT_ID      = 2026-055W
CENTER_NAME    = EARTH
REF_FRAME      = TEME
TIME_SYSTEM    = UTC
MEAN_ELEMENT_THEORY = SGP/SGP4

EPOCH          = 2026-03-25T15:07:55.615584
MEAN_MOTION    = 16.04426368
ECCENTRICITY   = .00005405
INCLINATION    = 53.1597
RA_OF_ASC_NODE = 258.0742
ARG_OF_PERICENTER = 134.7955
MEAN_ANOMALY   = 225.3122

EPHEMERIS_TYPE = 0
CLASSIFICATION_TYPE = U
NORAD_CAT_ID   = 68282
ELEMENT_SET_NO = 999
REV_AT_EPOCH   = 219
BSTAR          = -.94665215E-4
MEAN_MOTION_DOT = -.683E-3
MEAN_MOTION_DDOT = .13074387E-4

CCSDS_OMM_VERS = 2.0
CREATION_DATE  = 
ORIGINATOR     = 

OBJECT_NAME    = STARLINK-37124
OBJECT_ID      = 2026-055X
CENTER_NAME    = EARTH
REF_FRAME      = TEME
TIME_SYSTEM    = UTC
MEAN_ELEMENT_THEORY = SGP/SGP4

EPOCH          = 2026-03-25T15:07:06.067776
MEAN_MOTION    = 16.04687693
ECCENTRICITY   = .00004606
INCLINATION    = 53.1597
RA_OF_ASC_NODE = 258.0702
ARG_OF_PERICENTER = 143.1356
MEAN_ANOMALY   = 216.9709

EPHEMERIS_TYPE = 0
CLASSIFICATION_TYPE = U
NORAD_CAT_ID   = 68283
ELEMENT_SET_NO = 999
REV_AT_EPOCH   = 219
BSTAR          = -.91958922E-4
MEAN_MOTION_DOT = -.6746E-3
MEAN_MOTION_DDOT = .13043872E-4

CCSDS_OMM_VERS = 2.0
CREATION_DATE  = 
ORIGINATOR     = 

OBJECT_NAME    = STARLINK-37159
OBJECT_ID      = 2026-055Y
CENTER_NAME    = EARTH
REF_FRAME      = TEME
TIME_SYSTEM    = UTC
MEAN_ELEMENT_THEORY = SGP/SGP4

EPOCH          = 2026-03-25T15:06:38.170080
MEAN_MOTION    = 16.04799864
ECCENTRICITY   = .00010172
INCLINATION    = 53.1599
RA_OF_ASC_NODE = 258.0679
ARG_OF_PERICENTER = 216.1681
MEAN_ANOMALY   = 143.9283

EPHEMERIS_TYPE = 0
CLASSIFICATION_TYPE = U
NORAD_CAT_ID   = 68284
ELEMENT_SET_NO = 999
REV_AT_EPOCH   = 219
BSTAR          = -.19298848E-3
MEAN_MOTION_DOT = -.138529E-2
MEAN_MOTION_DDOT = .18629931E-4

CCSDS_OMM_VERS = 2.0
CREATION_DATE  = 
ORIGINATOR     = 

OBJECT_NAME    = STARLINK-36725
OBJECT_ID      = 2026-055Z
CENTER_NAME    = EARTH
REF_FRAME      = TEME
TIME_SYSTEM    = UTC
MEAN_ELEMENT_THEORY = SGP/SGP4

EPOCH          = 2026-03-25T15:06:15.695712
MEAN_MOTION    = 16.04918734
ECCENTRICITY   = .00008677
INCLINATION    = 53.1596
RA_OF_ASC_NODE = 258.0659
ARG_OF_PERICENTER = 219.3409
MEAN_ANOMALY   = 140.7561

EPHEMERIS_TYPE = 0
CLASSIFICATION_TYPE = U
NORAD_CAT_ID   = 68285
ELEMENT_SET_NO = 999
REV_AT_EPOCH   = 219
BSTAR          = -.18768105E-3
MEAN_MOTION_DOT = -.135775E-2
MEAN_MOTION_DDOT = .18355779E-4

CCSDS_OMM_VERS = 2.0
CREATION_DATE  = 
ORIGINATOR     = 

OBJECT_NAME    = STARLINK-36998
OBJECT_ID      = 2026-055AA
CENTER_NAME    = EARTH
REF_FRAME      = TEME
TIME_SYSTEM    = UTC
MEAN_ELEMENT_THEORY = SGP/SGP4

EPOCH          = 2026-03-25T15:05:19.795776
MEAN_MOTION    = 16.05247278
ECCENTRICITY   = .00017633
INCLINATION    = 53.1604
RA_OF_ASC_NODE = 258.0627
ARG_OF_PERICENTER = 156.4552
MEAN_ANOMALY   = 203.6562

EPHEMERIS_TYPE = 0
CLASSIFICATION_TYPE = U
NORAD_CAT_ID   = 68286
ELEMENT_SET_NO = 999
REV_AT_EPOCH   = 219
BSTAR          = -.17755062E-3
MEAN_MOTION_DOT = -.131211E-2
MEAN_MOTION_DDOT = .17928139E-4

CCSDS_OMM_VERS = 2.0
CREATION_DATE  = 
ORIGINATOR     = 

OBJECT_NAME    = STARLINK-37165
OBJECT_ID      = 2026-055AB
CENTER_NAME    = EARTH
REF_FRAME      = TEME
TIME_SYSTEM    = UTC
MEAN_ELEMENT_THEORY = SGP/SGP4

EPOCH          = 2026-03-25T15:04:54.374304
MEAN_MOTION    = 16.05331520
ECCENTRICITY   = .00006014
INCLINATION    = 53.1601
RA_OF_ASC_NODE = 258.0594
ARG_OF_PERICENTER = 217.5318
MEAN_ANOMALY   = 142.5673

EPHEMERIS_TYPE = 0
CLASSIFICATION_TYPE = U
NORAD_CAT_ID   = 68287
ELEMENT_SET_NO = 999
REV_AT_EPOCH   = 219
BSTAR          = -.25284147E-3
MEAN_MOTION_DOT = -.186211E-2
MEAN_MOTION_DDOT = .24614401E-4

CCSDS_OMM_VERS = 2.0
CREATION_DATE  = 
ORIGINATOR     = 

OBJECT_NAME    = STARLINK-37016
OBJECT_ID      = 2026-055AC
CENTER_NAME    = EARTH
REF_FRAME      = TEME
TIME_SYSTEM    = UTC
MEAN_ELEMENT_THEORY = SGP/SGP4

EPOCH          = 2026-03-25T15:05:49.184736
MEAN_MOTION    = 16.05086597
ECCENTRICITY   = .00020012
INCLINATION    = 53.1599
RA_OF_ASC_NODE = 258.0641
ARG_OF_PERICENTER = 157.3538
MEAN_ANOMALY   = 202.7584

EPHEMERIS_TYPE = 0
CLASSIFICATION_TYPE = U
NORAD_CAT_ID   = 68288
ELEMENT_SET_NO = 999
REV_AT_EPOCH   = 219
BSTAR          = -.17706471E-3
MEAN_MOTION_DOT = -.129619E-2
MEAN_MOTION_DDOT = .17751109E-4

CCSDS_OMM_VERS = 2.0
CREATION_DATE  = 
ORIGINATOR     = 

OBJECT_NAME    = STARLINK-37010
OBJECT_ID      = 2026-055AD
CENTER_NAME    = EARTH
REF_FRAME      = TEME
TIME_SYSTEM    = UTC
MEAN_ELEMENT_THEORY = SGP/SGP4

EPOCH          = 2026-03-25T15:04:31.586304
MEAN_MOTION    = 16.05460749
ECCENTRICITY   = .00005213
INCLINATION    = 53.1602
RA_OF_ASC_NODE = 258.0571
ARG_OF_PERICENTER = 225.1679
MEAN_ANOMALY   = 134.9312

EPHEMERIS_TYPE = 0
CLASSIFICATION_TYPE = U
NORAD_CAT_ID   = 68289
ELEMENT_SET_NO = 999
REV_AT_EPOCH   = 219
BSTAR          = -.22381549E-3
MEAN_MOTION_DOT = -.166548E-2
MEAN_MOTION_DDOT = .2199006E-4

CCSDS_OMM_VERS = 2.0
CREATION_DATE  = 
ORIGINATOR     = 

OBJECT_NAME    = STARLINK-37151
OBJECT_ID      = 2026-055AE
CENTER_NAME    = EARTH
REF_FRAME      = TEME
TIME_SYSTEM    = UTC
MEAN_ELEMENT_THEORY = SGP/SGP4

EPOCH          = 2026-03-25T15:04:11.565696
MEAN_MOTION    = 16.05592907
ECCENTRICITY   = .00004861
INCLINATION    = 53.1599
RA_OF_ASC_NODE = 258.0561
ARG_OF_PERICENTER = 213.5017
MEAN_ANOMALY   = 146.5986

EPHEMERIS_TYPE = 0
CLASSIFICATION_TYPE = U
NORAD_CAT_ID   = 68290
ELEMENT_SET_NO = 999
REV_AT_EPOCH   = 219
BSTAR          = -.14868377E-3
MEAN_MOTION_DOT = -.112751E-2
MEAN_MOTION_DDOT = .16230291E-4

CCSDS_OMM_VERS = 2.0
CREATION_DATE  = 
ORIGINATOR     = 

OBJECT_NAME    = STRIX-6
OBJECT_ID      = 2026-056A
CENTER_NAME    = EARTH
REF_FRAME      = TEME
TIME_SYSTEM    = UTC
MEAN_ELEMENT_THEORY = SGP/SGP4

EPOCH          = 2026-03-25T10:44:17.124288
MEAN_MOTION    = 14.99567493
ECCENTRICITY   = .00166543
INCLINATION    = 50.2837
RA_OF_ASC_NODE = 25.4705
ARG_OF_PERICENTER = 283.1978
MEAN_ANOMALY   = 76.7113

EPHEMERIS_TYPE = 0
CLASSIFICATION_TYPE = U
NORAD_CAT_ID   = 68291
ELEMENT_SET_NO = 999
REV_AT_EPOCH   = 70
BSTAR          = .38957843E-3
MEAN_MOTION_DOT = .4597E-4
MEAN_MOTION_DDOT = 0

CCSDS_OMM_VERS = 2.0
CREATION_DATE  = 
ORIGINATOR     = 

OBJECT_NAME    = ELECTRON R/B
OBJECT_ID      = 2026-056B
CENTER_NAME    = EARTH
REF_FRAME      = TEME
TIME_SYSTEM    = UTC
MEAN_ELEMENT_THEORY = SGP/SGP4

EPOCH          = 2026-03-25T02:32:41.623584
MEAN_MOTION    = 15.79520684
ECCENTRICITY   = .0237225
INCLINATION    = 50.2642
RA_OF_ASC_NODE = 24.6663
ARG_OF_PERICENTER = 267.6294
MEAN_ANOMALY   = 89.7512

EPHEMERIS_TYPE = 0
CLASSIFICATION_TYPE = U
NORAD_CAT_ID   = 68292
ELEMENT_SET_NO = 999
REV_AT_EPOCH   = 68
BSTAR          = .1060174E-2
MEAN_MOTION_DOT = .1885915E-1
MEAN_MOTION_DDOT = .10535259E-4

CCSDS_OMM_VERS = 2.0
CREATION_DATE  = 
ORIGINATOR     = 

OBJECT_NAME    = ELECTRON KICK STAGE R/B
OBJECT_ID      = 2026-056C
CENTER_NAME    = EARTH
REF_FRAME      = TEME
TIME_SYSTEM    = UTC
MEAN_ELEMENT_THEORY = SGP/SGP4

EPOCH          = 2026-03-25T12:36:07.547040
MEAN_MOTION    = 15.38968609
ECCENTRICITY   = .01595958
INCLINATION    = 50.2913
RA_OF_ASC_NODE = 23.7303
ARG_OF_PERICENTER = 29.8729
MEAN_ANOMALY   = 331.1229

EPHEMERIS_TYPE = 0
CLASSIFICATION_TYPE = U
NORAD_CAT_ID   = 68293
ELEMENT_SET_NO = 999
REV_AT_EPOCH   = 74
BSTAR          = .15330606E-2
MEAN_MOTION_DOT = .94979E-3
MEAN_MOTION_DDOT = 0

