STARLINK-37160          
1 68282U 26055W   26084.63050481 -.00068300  13074-4 -94665-4 0  9993
2 68282  53.1597 258.0742 0000540 134.7955 225.3122 16.04426368  2198
STARLINK-37124          
1 68283U 26055X   26084.62993134 -.00067460  13044-4 -91959-4 0  9990
2 68283  53.1597 258.0702 0000460 143.1356 216.9709 16.04687693  2192
STARLINK-37159          
1 68284U 26055Y   26084.62960845 -.00138529  18630-4 -19299-3 0  9991
2 68284  53.1599 258.0679 0001017 216.1681 143.9283 16.04799864  2199
STARLINK-36725          
1 68285U 26055Z   26084.62934833 -.00135775  18356-4 -18768-3 0  9995
2 68285  53.1596 258.0659 0000867 219.3409 140.7561 16.04918734  2193
STARLINK-36998          
1 68286U 26055AA  26084.62870134 -.00131211  17928-4 -17755-3 0  9999
2 68286  53.1604 258.0627 0001763 156.4552 203.6562 16.05247278  2194
STARLINK-37165          
1 68287U 26055AB  26084.62840711 -.00186211  24614-4 -25284-3 0  9994
2 68287  53.1601 258.0594 0000601 217.5318 142.5673 16.05331520  2192
STARLINK-37016          
1 68288U 26055AC  26084.62904149 -.00129619  17751-4 -17706-3 0  9994
2 68288  53.1599 258.0641 0002001 157.3538 202.7584 16.05086597  2194
STARLINK-37010          
1 68289U 26055AD  26084.62814336 -.00166548  21990-4 -22382-3 0  9991
2 68289  53.1602 258.0571 0000521 225.1679 134.9312 16.05460749  2197
STARLINK-37151          
1 68290U 26055AE  26084.62791164 -.00112751  16230-4 -14868-3 0  9994
2 68290  53.1599 258.0561 0000486 213.5017 146.5986 16.05592907  2198
STRIX-6                 
1 68291U 26056A   26084.44742042  .00004597  00000+0  38958-3 0  9992
2 68291  50.2837  25.4705 0016654 283.1978  76.7113 14.99567493   705
ELECTRON R/B            
1 68292U 26056B   26084.10603731  .01885915  10535-4  10602-2 0  9993
2 68292  50.2642  24.6663 0237225 267.6294  89.7512 15.79520684   685
ELECTRON KICK STAGE R/B 
1 68293U 26056C   26084.52508735  .00094979  00000+0  15331-2 0  9994
2 68293  50.2913  23.7303 0159595  29.8729 331.1229 15.38968609   746
